{
    "links": {
        "self": "http://www.neowsapp.com/rest/v1/neo/3714464?api_key=iIulBulltgU6a56xZRHN4H3l9WmuAYTsLGpBGhQ2"
    },
    "id": "3714464",
    "neo_reference_id": "3714464",
    "name": "(2015 FC118)",
    "designation": "2015 FC118",
    "nasa_jpl_url": "http://ssd.jpl.nasa.gov/sbdb.cgi?sstr=3714464",
    "absolute_magnitude_h": 20.8,
    "estimated_diameter": {
        "kilometers": {
            "estimated_diameter_min": 0.1838886721,
            "estimated_diameter_max": 0.411187571
        },
        "meters": {
            "estimated_diameter_min": 183.8886720703,
            "estimated_diameter_max": 411.1875710413
        },
        "miles": {
            "estimated_diameter_min": 0.1142630881,
            "estimated_diameter_max": 0.2555000322
        },
        "feet": {
            "estimated_diameter_min": 603.309310875,
            "estimated_diameter_max": 1349.040630575
        }
    },
    "is_potentially_hazardous_asteroid": false,
    "close_approach_data": [
        {
            "close_approach_date": "1967-04-11",
            "close_approach_date_full": "1967-Apr-11 06:51",
            "epoch_date_close_approach": -86029740000,
            "relative_velocity": {
                "kilometers_per_second": "16.271571549",
                "kilometers_per_hour": "58577.6575764414",
                "miles_per_hour": "36397.8783979838"
            },
            "miss_distance": {
                "astronomical": "0.44826434",
                "lunar": "174.37482826",
                "kilometers": "67059390.4609558",
                "miles": "41668773.02575804"
            },
            "orbiting_body": "Earth"
        },
        {
            "close_approach_date": "2015-04-10",
            "close_approach_date_full": "2015-Apr-10 06:26",
            "epoch_date_close_approach": 1428647160000,
            "relative_velocity": {
                "kilometers_per_second": "14.3183421951",
                "kilometers_per_hour": "51546.0319024496",
                "miles_per_hour": "32028.6996562749"
            },
            "miss_distance": {
                "astronomical": "0.4461011421",
                "lunar": "173.5333442769",
                "kilometers": "66735780.662727327",
                "miles": "41467691.2214260326"
            },
            "orbiting_body": "Earth"
        },
        {
            "close_approach_date": "2050-04-09",
            "close_approach_date_full": "2050-Apr-09 22:20",
            "epoch_date_close_approach": 2533155600000,
            "relative_velocity": {
                "kilometers_per_second": "16.9256861565",
                "kilometers_per_hour": "60932.47016349",
                "miles_per_hour": "37861.0673635308"
            },
            "miss_distance": {
                "astronomical": "0.4622878296",
                "lunar": "179.8299657144",
                "kilometers": "69157274.635082952",
                "miles": "42972337.8044586576"
            },
            "orbiting_body": "Earth"
        }
    ],
    "orbital_data": {
        "orbit_id": "17",
        "orbit_determination_date": "2017-04-06 08:34:45",
        "first_observation_date": "2015-03-24",
        "last_observation_date": "2015-05-19",
        "data_arc_in_days": 56,
        "observations_used": 57,
        "orbit_uncertainty": "6",
        "minimum_orbit_intersection": ".42953",
        "jupiter_tisserand_invariant": "3.021",
        "epoch_osculation": "2459000.5",
        "eccentricity": ".5331742410608524",
        "semi_major_axis": "2.672245709009578",
        "inclination": "27.62906651916887",
        "ascending_node_longitude": "175.3251459980123",
        "orbital_period": "1595.559519545219",
        "perihelion_distance": "1.247473131180277",
        "perihelion_argument": "66.25906189066721",
        "aphelion_distance": "4.097018286838879",
        "perihelion_time": "2458774.081611812974",
        "mean_anomaly": "51.08591609955241",
        "mean_motion": ".2256261804026029",
        "equinox": "J2000",
        "orbit_class": {
            "orbit_class_type": "AMO",
            "orbit_class_description": "Near-Earth asteroid orbits similar to that of 1221 Amor",
            "orbit_class_range": "1.017 AU < q (perihelion) < 1.3 AU"
        }
    },
    "is_sentry_object": false
}